MOLNIYA 3-20            
1 13875U 83015A   23139.89796206 -.00001461  00000+0  44421-3 0  9996
2 13875  62.3463 299.5194 7349121 261.5503  17.0855  2.00629015230464
MOLNIYA 1-56            
1 13890U 83019A   23139.76119195  .00000284  00000+0 -21055-3 0  9999
2 13890  62.8036 323.7282 7423215 267.2208  14.3367  2.00076640293324
MOLNIYA 1-63            
1 15429U 84124A   23140.93502598 -.00000921  00000+0  00000+0 0  9992
2 15429  63.6306 134.2105 6797148 257.4424  18.4348  2.00430108281527
MOLNIYA 3-24            
1 15738U 85040A   23138.80237322 -.00000208  00000+0 -24174-4 0  9998
2 15738  63.4550  18.5490 6893898 247.3901  29.5154  2.55630662312448
MOLNIYA 3-27            
1 16393U 85117A   23139.85968989 -.00000234  00000+0  00000+0 0  9992
2 16393  64.1455  35.8668 7099630 246.4415  27.6176  2.12397488281324
MOLNIYA 1-69            
1 17078U 86089A   23140.07817024 -.00000056  00000+0  00000+0 0  9993
2 17078  64.0661 153.7555 6774040 255.1502  25.9959  2.01000361267587
MOLNIYA 3-31            
1 17328U 87008A   23139.87758876 -.00000321  00000+0  00000+0 0  9993
2 17328  63.5711  86.2391 7219683 253.0033  22.3307  2.00577363262614
MOLNIYA 1-71            
1 18946U 88017A   23139.88150463  .00000233  00000+0  00000+0 0  9991
2 18946  63.3069  77.3531 7324308 256.5049  19.4903  2.00650025257809
MOLNIYA 1-75            
1 19807U 89014A   23137.71174618 -.00001042  00000+0  00000+0 0  9994
2 19807  63.8631 249.0239 6728259 265.1041  21.3448  2.00366527250708
MOLNIYA 1-80            
1 21118U 91012A   23139.82160774 -.00000158  00000+0  00000+0 0  9992
2 21118  65.1595 297.1477 6680250 273.2061  18.2481  2.05235340237887
MOLNIYA 3-40            
1 21196U 91022A   23137.80635467 -.00000612  00000+0  00000+0 0  9996
2 21196  65.0150 291.1527 6707243 270.1850  19.2262  2.03000189236474
MOLNIYA 1-81            
1 21426U 91043A   23140.49445172 -.00000011  00000+0  00000+0 0  9999
2 21426  63.8753 301.8242 7022460 265.2073  18.5420  2.00597491233909
MOLNIYA 3-41            
1 21706U 91065A   23140.07426952  .00000073  00000+0  00000+0 0  9990
2 21706  64.0585 127.6830 7014596 252.9689  24.6217  2.04359650233741
MOLNIYA 3-42            
1 22178U 92067A   23139.04065252  .00000192  00000+0  00000+0 0  9996
2 22178  64.6760 180.8631 6437768 261.4514  25.9822  2.20435403 87457
MOLNIYA 1-86            
1 22671U 93035A   23140.78897648  .00000347  00000+0  62099-3 0  9997
2 22671  63.1276  40.6565 4846688  12.4372 356.2506  5.62928481371287
MOLNIYA 1-87            
1 22949U 93079A   23140.71969232 -.00001321  00000+0  00000+0 0  9999
2 22949  64.4174  52.9812 6947469 282.0028  13.4928  2.02873395 81777
MOLNIYA 1-88            
1 23420U 94081A   23139.52163717  .00000068  00000+0  00000+0 0  9995
2 23420  64.2991 121.6724 5817574 276.7688  23.9309  3.34498099124943
MOLNIYA 3-47            
1 23642U 95042A   23138.99367931  .00000430  00000+0  00000+0 0  9996
2 23642  64.5513  34.5975 6974183 282.2416  13.2318  2.01921507203795
MOLNIYA 1-90            
1 24960U 97054A   23140.09801708  .00000037  00000+0  18213-2 0  9995
2 24960  63.8253  86.7463 6100003 296.0414  14.5623  3.18690491218733
MOLNIYA 1-91            
1 25485U 98054A   23140.90972813  .00000066  00000+0  00000+0 0  9999
2 25485  63.2856  97.6657 6786414 291.7467  11.8517  2.36445456187017
MOLNIYA 3-50            
1 25847U 99036A   23140.44392391 -.00000090  00000+0 -15108-2 0  9995
2 25847  63.3404 284.4148 7251704 282.8199  11.2368  2.00584670174874
COSMOS 2361 [-]         
1 25590U 98076A   23140.84381727  .00000064  00000+0  52987-4 0  9995
2 25590  82.9320 316.7578 0031296 353.1954 124.5015 13.73060886222539
COSMOS 2378 [-]         
1 26818U 01023A   23141.10003161  .00000054  00000+0  41813-4 0  9993
2 26818  82.9264 333.9906 0031756 296.0414 185.6159 13.74001543100676
COSMOS 2389 [-]         
1 27436U 02026A   23141.17585934  .00000053  00000+0  39298-4 0  9997
2 27436  82.9491 280.0822 0047123 152.0208  21.1133 13.75012105 52838
COSMOS 2398 [-]         
1 27818U 03023A   23140.81812628  .00000069  00000+0  58859-4 0  9993
2 27818  82.9496 243.0317 0031162 192.4974 286.1414 13.72245570999655
COSMOS 2407 [+]         
1 28380U 04028A   23141.10511597  .00000092  00000+0  77747-4 0  9991
2 28380  82.9614 186.4494 0040047 151.4671 266.5805 13.76153665945596
COSMOS 2414 [+]         
1 28521U 05002A   23140.84059857  .00000074  00000+0  49555-4 0  9993
2 28521  82.9496 173.1592 0038810 293.0518  66.6555 13.87704835928035
COSMOS 2429 [-]         
1 32052U 07038A   23141.16944084  .00000062  00000+0  48520-4 0  9997
2 32052  82.9783 313.4793 0039539 130.1062 230.3571 13.74998663787417
COSMOS 2454 [-]         
1 35635U 09039A   23140.79120648  .00000089  00000+0  59527-4 0  9998
2 35635  82.9549 158.9206 0018061 230.5771 303.2359 13.89733445701351
COSMOS 2463 [+]         
1 36519U 10017A   23140.83851190  .00000072  00000+0  62772-4 0  9994
2 36519  82.9614 354.9983 0036434   9.1452   1.5480 13.71508352653948
TRANSIT 16 [?]          
1 02807U 67048A   23140.69033817  .00000159  00000+0  23227-3 0  9992
2 02807  89.6675  24.9338 0018893 310.2513 103.4783 13.50395654756288
TRANSIT 17 [?]          
1 02965U 67092A   23140.86025946  .00000145  00000+0  19831-3 0  9990
2 02965  89.2278  97.2076 0050042  76.6444 342.6176 13.53107217744265
TRANSIT 18 [?]          
1 03133U 68012A   23140.87029810  .00000109  00000+0  15122-3 0  9995
2 03133  90.0126 271.8267 0074603   5.7536 104.8782 13.51233895442650
NNSS 19 [?]             
1 04507U 70067A   23140.80476278  .00000159  00000+0  20833-3 0  9991
2 04507  89.9455 237.0218 0174441 126.9751 234.7514 13.50922869595700
NNSS O-20 [?]           
1 06909U 73081A   23140.80493662  .00000158  00000+0  15209-3 0  9994
2 06909  89.8240 271.0742 0156018   7.3322 353.0070 13.70820264675221
TRANSAT [?]             
1 10457U 77106A   23140.86613459  .00000084  00000+0  11803-3 0  9997
2 10457  89.6645 111.4490 0025846  19.4909  37.5253 13.48731396241146
NOVA I [?]              
1 12458U 81044A   23141.18505122  .00000068  00000+0  13992-3 0  9992
2 12458  89.8760 103.8316 0014997 158.3806 212.8080 13.23106251 28288
NOVA 3 [?]              
1 15362U 84110A   23140.83196164  .00000107  00000+0  23422-3 0  9992
2 15362  90.1105  70.2530 0033307  35.1150  27.8688 13.22876405863119
OSCAR 30 [?]            
1 15935U 85066A   23140.85155927  .00000101  00000+0  16779-3 0  9994
2 15935  90.1821  83.7994 0167392 206.2026 208.9212 13.35819073839512
OSCAR 24 [?]            
1 15936U 85066B   23140.89041833  .00000098  00000+0  16385-3 0  9997
2 15936  90.1824  75.6887 0167812 212.0806 217.4768 13.35678538841585
POLAR BEAR [?]          
1 17070U 86088A   23140.75470800  .00000126  00000+0  11967-3 0  9991
2 17070  89.5861 222.4744 0041182  68.2221  43.6566 13.74943201831024
OSCAR 27 [?]            
1 18361U 87080A   23140.77002061  .00000133  00000+0  20640-3 0  9996
2 18361  90.3481  45.5836 0105559  28.7789 331.9126 13.44631157749643
OSCAR 29 [?]            
1 18362U 87080B   23140.77106083  .00000113  00000+0  17370-3 0  9990
2 18362  90.3495  45.9463 0107724  49.4472   8.0261 13.44209041749212
OSCAR 23 [?]            
1 19070U 88033A   23140.82409858  .00000090  00000+0  16945-3 0  9999
2 19070  90.3197 347.4771 0187876 265.7580 103.1339 13.27574376698212
OSCAR 32 [?]            
1 19071U 88033B   23140.84717097  .00000088  00000+0  16395-3 0  9995
2 19071  90.3199 347.5711 0186283 253.2219 116.5677 13.27751047698329
NOVA 11 [?]             
1 19223U 88052A   23140.83736611  .00000034  00000+0  60255-4 0  9993
2 19223  89.9800  80.0428 0032696  76.1988 337.5408 13.22784551685614
OSCAR 25 [?]            
1 19419U 88074A   23140.93711265  .00000117  00000+0  18572-3 0  9999
2 19419  90.0129  18.1658 0097739  39.4563 331.2158 13.42360175700711
OSCAR 31 [?]            
1 19420U 88074B   23140.94953961  .00000124  00000+0  19840-3 0  9990
2 19420  90.0141  18.3796 0095773  33.6738 338.2981 13.42362837700828
NOAA 1 [-]              
1 04793U 70106A   23140.79797205 -.00000024  00000+0  12160-3 0  9992
2 04793 101.5037 200.4388 0031604  26.2299  86.0718 12.54015238400365
NOAA 2 (ITOS-D) [-]     
1 06235U 72082A   23140.83448946 -.00000036  00000+0  66204-4 0  9992
2 06235 101.9905 130.6791 0004265 144.9141 277.9770 12.53162280314233
NOAA 3 [-]              
1 06920U 73086A   23140.84852413 -.00000044  00000+0  16744-4 0  9990
2 06920 102.2465 128.9055 0006835  32.5159  28.2651 12.40356772242623
NOAA 4 [-]              
1 07529U 74089A   23140.81230286 -.00000047  00000+0 -81030-5 0  9990
2 07529 101.9549 126.9962 0008953 176.0553 248.9660 12.53168654218806
NOAA 5 [-]              
1 09057U 76077A   23140.83623307 -.00000030  00000+0  11904-3 0  9991
2 09057 102.1517 110.9009 0009270 237.1317 191.8577 12.37784510115487
TIROS N [-]             
1 11060U 78096A   23140.87570259  .00000252  00000+0  14245-3 0  9998
2 11060  98.5848 189.8285 0009432 248.2846 111.7326 14.18564652519441
NOAA 6 [-]              
1 11416U 79057A   23140.79498396  .00000435  00000+0  17159-3 0  9993
2 11416  98.6523 157.0664 0009967 350.0598  10.0387 14.34047031289867
NOAA 7 [-]              
1 12553U 81059A   23140.87634415  .00000082  00000+0  63004-4 0  9993
2 12553  98.9480 193.6168 0010651 232.2374 127.7836 14.17409981165590
NOAA 8 [-]              
1 13923U 83022A   23140.87663299  .00000199  00000+0  96205-4 0  9997
2 13923  98.7121 135.6173 0014079 305.8627  54.1246 14.28981429 90599
NOAA 9 [-]              
1 15427U 84123A   23140.86404088  .00000190  00000+0  11930-3 0  9991
2 15427  99.0885 124.3592 0013846 291.4906 128.1188 14.16359059984372
NOAA 10 [-]             
1 16969U 86073A   23140.83739559  .00000203  00000+0  98547-4 0  9995
2 16969  98.6033 126.4413 0013106  47.8201  13.7536 14.28362320908997
